{"type": "FeatureCollection", "features": [ {"type": "Feature", "properties": {"norad_id": 66535, "name": "STARLINK-35514", "group": "last-30-days", "lat": 5.7354839192328075, "lon": -131.50224261158255, "alt_km": 414.1553980903509, "timestamp": "2025-12-12T14:39:16.771249+00:00", "meta": {"OBJECT_NAME": "STARLINK-35514", "OBJECT_ID": "2025-265V", "EPOCH": "2025-12-12T06:00:00.999648", "MEAN_MOTION": 15.505499, "ECCENTRICITY": 0.00016222, "INCLINATION": 43.0006, "RA_OF_ASC_NODE": 56.7949, "ARG_OF_PERICENTER": 264.7222, "MEAN_ANOMALY": 51.4987, "EPHEMERIS_TYPE": 0, "CLASSIFICATION_TYPE": "U", "NORAD_CAT_ID": 66535, "ELEMENT_SET_NO": 999, "REV_AT_EPOCH": 491, "BSTAR": 0.00052419619, "MEAN_MOTION_DOT": 0.00030498, "MEAN_MOTION_DDOT": 0}, "tle": {"line1": "1 66535U 25265V   25346.25001157  .00030498  00000+0  52420-3 0  9995", "line2": "2 66535  43.0006  56.7949 0001622 264.7222  51.4987 15.50549900  4912"}}, "geometry": {"type": "Point", "coordinates": [-131.50224261158255, 5.7354839192328075]}}, {"type": "Feature", "properties": {"norad_id": 66536, "name": "STARLINK-35640", "group": "last-30-days", "lat": 4.435444621349225, "lon": -130.0942751992717, "alt_km": 414.27250089286736, "timestamp": "2025-12-12T14:39:16.771259+00:00", "meta": {"OBJECT_NAME": "STARLINK-35640", "OBJECT_ID": "2025-265W", "EPOCH": "2025-12-12T06:00:00.999648", "MEAN_MOTION": 15.50545984, "ECCENTRICITY": 0.00011599, "INCLINATION": 43.0004, "RA_OF_ASC_NODE": 56.7902, "ARG_OF_PERICENTER": 263.3369, "MEAN_ANOMALY": 54.7989, "EPHEMERIS_TYPE": 0, "CLASSIFICATION_TYPE": "U", "NORAD_CAT_ID": 66536, "ELEMENT_SET_NO": 999, "REV_AT_EPOCH": 489, "BSTAR": 0.00052711307, "MEAN_MOTION_DOT": 0.00030666, "MEAN_MOTION_DDOT": 0}, "tle": {"line1": "1 66536U 25265W   25346.25001157  .00030666  00000+0  52711-3 0  9996", "line2": "2 66536  43.0004  56.7902 0001159 263.3369  54.7989 15.50545984  4895"}}, "geometry": {"type": "Point", "coordinates": [-130.0942751992717, 4.435444621349225]}}, {"type": "Feature", "properties": {"norad_id": 66537, "name": "STARLINK-35582", "group": "last-30-days", "lat": 3.0212568875718606, "lon": -128.57159555177444, "alt_km": 414.1129270784986, "timestamp": "2025-12-12T14:39:16.771270+00:00", "meta": {"OBJECT_NAME": "STARLINK-35582", "OBJECT_ID": "2025-265X", "EPOCH": "2025-12-12T06:00:00.999648", "MEAN_MOTION": 15.50731762, "ECCENTRICITY": 0.0001351, "INCLINATION": 43.0006, "RA_OF_ASC_NODE": 56.7854, "ARG_OF_PERICENTER": 261.1373, "MEAN_ANOMALY": 58.8932, "EPHEMERIS_TYPE": 0, "CLASSIFICATION_TYPE": "U", "NORAD_CAT_ID": 66537, "ELEMENT_SET_NO": 999, "REV_AT_EPOCH": 491, "BSTAR": -0.0014773012, "MEAN_MOTION_DOT": -0.00086525, "MEAN_MOTION_DDOT": 0}, "tle": {"line1": "1 66537U 25265X   25346.25001157 -.00086525  00000+0 -14773-2 0  9999", "line2": "2 66537  43.0006  56.7854 0001351 261.1373  58.8932 15.50731762  4916"}}, "geometry": {"type": "Point", "coordinates": [-128.57159555177444, 3.0212568875718606]}}, {"type": "Feature", "properties": {"norad_id": 66538, "name": "STARLINK-35577", "group": "last-30-days", "lat": 1.8866741980767345, "lon": -127.35524205327455, "alt_km": 414.55514635675445, "timestamp": "2025-12-12T14:39:16.771279+00:00", "meta": {"OBJECT_NAME": "STARLINK-35577", "OBJECT_ID": "2025-265Y", "EPOCH": "2025-12-12T06:00:00.999648", "MEAN_MOTION": 15.50496154, "ECCENTRICITY": 0.0001445, "INCLINATION": 43.0005, "RA_OF_ASC_NODE": 56.7801, "ARG_OF_PERICENTER": 262.7669, "MEAN_ANOMALY": 59.1499, "EPHEMERIS_TYPE": 0, "CLASSIFICATION_TYPE": "U", "NORAD_CAT_ID": 66538, "ELEMENT_SET_NO": 999, "REV_AT_EPOCH": 491, "BSTAR": 0.0016883829, "MEAN_MOTION_DOT": 0.00099683, "MEAN_MOTION_DDOT": 0}, "tle": {"line1": "1 66538U 25265Y   25346.25001157  .00099683  00000+0  16884-2 0  9992", "line2": "2 66538  43.0005  56.7801 0001445 262.7669  59.1499 15.50496154  4912"}}, "geometry": {"type": "Point", "coordinates": [-127.35524205327455, 1.8866741980767345]}}, {"type": "Feature", "properties": {"norad_id": 66539, "name": "STARLINK-35697", "group": "last-30-days", "lat": 0.5840507455059161, "lon": -125.96116018063645, "alt_km": 414.118524834229, "timestamp": "2025-12-12T14:39:16.771288+00:00", "meta": {"OBJECT_NAME": "STARLINK-35697", "OBJECT_ID": "2025-265Z", "EPOCH": "2025-12-12T06:00:00.999648", "MEAN_MOTION": 15.50535926, "ECCENTRICITY": 0.00017767, "INCLINATION": 43.0007, "RA_OF_ASC_NODE": 56.7753, "ARG_OF_PERICENTER": 239.6128, "MEAN_ANOMALY": 84.1684, "EPHEMERIS_TYPE": 0, "CLASSIFICATION_TYPE": "U", "NORAD_CAT_ID": 66539, "ELEMENT_SET_NO": 999, "REV_AT_EPOCH": 491, "BSTAR": 0.0015563663, "MEAN_MOTION_DOT": 0.00091901, "MEAN_MOTION_DDOT": 0}, "tle": {"line1": "1 66539U 25265Z   25346.25001157  .00091901  00000+0  15564-2 0  9992", "line2": "2 66539  43.0007  56.7753 0001776 239.6128  84.1684 15.50535926  4916"}}, "geometry": {"type": "Point", "coordinates": [-125.96116018063645, 0.5840507455059161]}}, {"type": "Feature", "properties": {"norad_id": 66540, "name": "STARLINK-35818", "group": "last-30-days", "lat": -0.7437153526892726, "lon": -124.54111793077058, "alt_km": 414.8550484808893, "timestamp": "2025-12-12T14:39:16.771297+00:00", "meta": {"OBJECT_NAME": "STARLINK-35818", "OBJECT_ID": "2025-265AA", "EPOCH": "2025-12-12T06:00:00.999648", "MEAN_MOTION": 15.50473445, "ECCENTRICITY": 0.00016566, "INCLINATION": 43.0005, "RA_OF_ASC_NODE": 56.7702, "ARG_OF_PERICENTER": 260.1559, "MEAN_ANOMALY": 65.655, "EPHEMERIS_TYPE": 0, "CLASSIFICATION_TYPE": "U", "NORAD_CAT_ID": 66540, "ELEMENT_SET_NO": 999, "REV_AT_EPOCH": 491, "BSTAR": 0.0015478507, "MEAN_MOTION_DOT": 0.00091184, "MEAN_MOTION_DDOT": 0}, "tle": {"line1": "1 66540U 25265AA  25346.25001157  .00091184  00000+0  15479-2 0  9992", "line2": "2 66540  43.0005  56.7702 0001656 260.1559  65.6550 15.50473445  4917"}}, "geometry": {"type": "Point", "coordinates": [-124.54111793077058, -0.7437153526892726]}}, {"type": "Feature", "properties": {"norad_id": 66541, "name": "STARLINK-35796", "group": "last-30-days", "lat": -2.1173881392859517, "lon": -123.07048676337217, "alt_km": 414.9034820224342, "timestamp": "2025-12-12T14:39:16.771306+00:00", "meta": {"OBJECT_NAME": "STARLINK-35796", "OBJECT_ID": "2025-265AB", "EPOCH": "2025-12-12T06:00:00.999648", "MEAN_MOTION": 15.50649638, "ECCENTRICITY": 0.00017523, "INCLINATION": 43.0004, "RA_OF_ASC_NODE": 56.7655, "ARG_OF_PERICENTER": 262.3381, "MEAN_ANOMALY": 65.3471, "EPHEMERIS_TYPE": 0, "CLASSIFICATION_TYPE": "U", "NORAD_CAT_ID": 66541, "ELEMENT_SET_NO": 999, "REV_AT_EPOCH": 491, "BSTAR": -0.0016161334, "MEAN_MOTION_DOT": -0.00094259, "MEAN_MOTION_DDOT": 0}, "tle": {"line1": "1 66541U 25265AB  25346.25001157 -.00094259  00000+0 -16161-2 0  9990", "line2": "2 66541  43.0004  56.7655 0001752 262.3381  65.3471 15.50649638  4916"}}, "geometry": {"type": "Point", "coordinates": [-123.07048676337217, -2.1173881392859517]}}, {"type": "Feature", "properties": {"norad_id": 66542, "name": "STARLINK-35833", "group": "last-30-days", "lat": -3.3997451874252, "lon": -121.69335216862963, "alt_km": 415.0329940522315, "timestamp": "2025-12-12T14:39:16.771315+00:00", "meta": {"OBJECT_NAME": "STARLINK-35833", "OBJECT_ID": "2025-265AC", "EPOCH": "2025-12-12T06:00:00.999648", "MEAN_MOTION": 15.50546353, "ECCENTRICITY": 0.00014271, "INCLINATION": 43.0005, "RA_OF_ASC_NODE": 56.7612, "ARG_OF_PERICENTER": 258.3037, "MEAN_ANOMALY": 71.3367, "EPHEMERIS_TYPE": 0, "CLASSIFICATION_TYPE": "U", "NORAD_CAT_ID": 66542, "ELEMENT_SET_NO": 999, "REV_AT_EPOCH": 491, "BSTAR": 0.00051955347, "MEAN_MOTION_DOT": 0.0003022, "MEAN_MOTION_DDOT": 0}, "tle": {"line1": "1 66542U 25265AC  25346.25001157  .00030220  00000+0  51955-3 0  9998", "line2": "2 66542  43.0005  56.7612 0001427 258.3037  71.3367 15.50546353  4914"}}, "geometry": {"type": "Point", "coordinates": [-121.69335216862963, -3.3997451874252]}}, {"type": "Feature", "properties": {"norad_id": 66543, "name": "STARLINK-35315", "group": "last-30-days", "lat": -4.706920808987083, "lon": -120.28477737031842, "alt_km": 415.14541691464547, "timestamp": "2025-12-12T14:39:16.771324+00:00", "meta": {"OBJECT_NAME": "STARLINK-35315", "OBJECT_ID": "2025-265AD", "EPOCH": "2025-12-12T06:00:00.999648", "MEAN_MOTION": 15.50545976, "ECCENTRICITY": 0.00012668, "INCLINATION": 43.0006, "RA_OF_ASC_NODE": 56.7558, "ARG_OF_PERICENTER": 255.3665, "MEAN_ANOMALY": 76.1941, "EPHEMERIS_TYPE": 0, "CLASSIFICATION_TYPE": "U", "NORAD_CAT_ID": 66543, "ELEMENT_SET_NO": 999, "REV_AT_EPOCH": 480, "BSTAR": 0.00056539465, "MEAN_MOTION_DOT": 0.00032928, "MEAN_MOTION_DDOT": 0}, "tle": {"line1": "1 66543U 25265AD  25346.25001157  .00032928  00000+0  56539-3 0  9999", "line2": "2 66543  43.0006  56.7558 0001266 255.3665  76.1941 15.50545976  4809"}}, "geometry": {"type": "Point", "coordinates": [-120.28477737031842, -4.706920808987083]}}, {"type": "Feature", "properties": {"norad_id": 66544, "name": "STARLINK-35728", "group": "last-30-days", "lat": -6.004618704455422, "lon": -118.87747992711435, "alt_km": 415.2252424234366, "timestamp": "2025-12-12T14:39:16.771334+00:00", "meta": {"OBJECT_NAME": "STARLINK-35728", "OBJECT_ID": "2025-265AE", "EPOCH": "2025-12-12T06:00:00.999648", "MEAN_MOTION": 15.50556396, "ECCENTRICITY": 0.00014879, "INCLINATION": 43.0004, "RA_OF_ASC_NODE": 56.751, "ARG_OF_PERICENTER": 256.3433, "MEAN_ANOMALY": 77.1239, "EPHEMERIS_TYPE": 0, "CLASSIFICATION_TYPE": "U", "NORAD_CAT_ID": 66544, "ELEMENT_SET_NO": 999, "REV_AT_EPOCH": 491, "BSTAR": 0.00040443392, "MEAN_MOTION_DOT": 0.00023436, "MEAN_MOTION_DDOT": 0}, "tle": {"line1": "1 66544U 25265AE  25346.25001157  .00023436  00000+0  40443-3 0  9991", "line2": "2 66544  43.0004  56.7510 0001487 256.3433  77.1239 15.50556396  4916"}}, "geometry": {"type": "Point", "coordinates": [-118.87747992711435, -6.004618704455422]}}]}